C/2018 KJ3 (Lemmon),e,136.7086,91.6001,217.6615,823.2813,0.0000417,0.99559164,0.0000,09/09.6844/2019,2000,g 12.2,2.0
# From MPC114602
P/2018 L1 (PANSTARRS),e,10.5928,268.6307,17.9796,3.650634,0.1413031,0.48288661,111.2595,01/08.0/2021,2000,g 15.0,4.0
# From MPC118841
C/2018 L2 (ATLAS),e,67.3898,243.0237,56.2719,259.0409,0.0002364,0.99338825,0.0000,12/02.6811/2018,2000,g 10.0,4.0
# From MPC114603
P/2018 L4 (PANSTARRS),e,26.6246,145.1571,140.5578,4.940377,0.0897561,0.66018192,79.9831,01/08.0/2021,2000,g 17.5,4.0
# From MPC119996
P/2018 L5 (Leonard),e,2.2082,219.1285,93.7972,3.627723,0.1426438,0.36478366,139.6366,01/08.0/2021,2000,g 14.5,4.0
# From MPC117070
C/2018 M1 (Catalina),e,37.2899,339.4177,14.1619,21.35130,0.0099900,0.93899722,9.1181,01/08.0/2021,2000,g 15.5,4.0
# From MPC112393
C/2018 N1 (NEOWISE),e,159.4445,292.4450,354.6215,348.8357,0.0001513,0.99624534,0.0000,08/01.9344/2018,2000,g 15.5,4.0
# From MPC119996
C/2018 N2 (ASASSN),h,11/10.9697/2019,77.5284,25.2460,24.4030,1.000108,3.124775,2000,6.0,4.0
# From MPC114603
C/2018 O1 (ATLAS),e,154.0394,87.6438,162.5778,27.89791,0.0066888,0.94407052,5.7552,01/08.0/2021,2000,g 17.0,4.0
# From MPC114603
P/2018 P3 (PANSTARRS),e,8.9089,59.1855,305.8726,3.006296,0.1890848,0.41644554,155.2855,01/08.0/2021,2000,g 14.5,4.0
# From MPC114603
P/2018 P4 (PANSTARRS),e,23.1070,353.0766,8.2129,6.671306,0.0571989,0.45038375,45.3068,01/08.0/2021,2000,g 12.0,4.0
# From MPC118094
C/2018 P5 (PANSTARRS),e,7.2531,216.2420,131.7207,12.79611,0.0215321,0.64228739,14.6635,01/08.0/2021,2000,g 11.0,4.0
# From MPC118841
C/2018 R3 (Lemmon),e,69.7277,324.6379,112.8363,1682,0.0000143,0.99923323,0.0000,06/07.2234/2019,2000,g  9.5,4.0
# From MPC112393
C/2018 R4 (Fuls),e,11.6836,298.4365,345.2751,329.2671,0.0001650,0.99479581,0.0000,03/03.6494/2018,2000,g 14.0,4.0
# From MPC114603
C/2018 R5 (Lemmon),e,103.7481,171.1297,178.0471,22.78372,0.0090629,0.84098427,6.6069,01/08.0/2021,2000,g 11.5,4.0
# From MPC119996
C/2018 U1 (Lemmon),h,11/02.8287/2021,108.2986,75.4797,180.4329,1.001143,4.993275,2000,5.0,4.0
# From MPC114604
C/2018 V1 (Machholz-Fujikawa-Iwamoto),h,12/03.3189/2018,144.0533,128.8775,88.8386,1.000356,0.386093,2000,12.0,4.0
# From MPC115884
C/2018 V2 (ATLAS),e,159.1664,357.0717,318.9560,25.18979,0.0077959,0.90162220,6.0307,01/08.0/2021,2000,g 15.0,4.0
# From MPC114604
P/2018 VN2 (Leonard),e,18.2485,226.5161,138.7375,4.064719,0.1202703,0.47844050,113.9390,01/08.0/2021,2000,g 15.0,4.0
# From MPC117070
A/2018 V3,e,164.9781,308.6561,3.5158,121.5653,0.0007353,0.98897569,0.0000,09/08.6775/2019,2000,g 15.7,2.0
# From MPC114604
C/2018 V4 (Africano),e,69.0031,78.3674,359.9475,206.5079,0.0003321,0.98451674,0.0000,03/01.4334/2019,2000,g 12.5,4.0
# From MPC114604
P/2018 V5 (Trujillo-Sheppard),e,10.5849,171.2902,260.7021,8.954288,0.0367839,0.47459121,30.4629,01/08.0/2021,2000,g 12.5,4.0
# From MPC115884
C/2018 W1 (Catalina),e,83.2636,233.5931,251.2501,21.71921,0.0097373,0.93735389,5.9131,01/08.0/2021,2000,g 15.7,2.0
# From MPC119996
C/2018 W2 (Africano),h,09/05.6594/2019,116.6171,181.8514,157.9745,1.000449,1.454987,2000,9.5,4.0
# From MPC119996
C/2018 X2 (Fitzsimmons),e,23.0694,340.8272,162.0592,148.0460,0.0005472,0.98563596,0.0000,07/08.4436/2019,2000,g 12.0,4.0
# From MPC114604
C/2018 X3 (PANSTARRS),e,43.3707,78.9091,359.7608,12.37955,0.0226280,0.78216827,16.7318,01/08.0/2021,2000,g 14.5,4.0
# From MPC118842
C/2018 Y1 (Iwamoto),e,160.3999,147.5108,358.0261,141.3520,0.0005865,0.99090739,0.0000,02/07.0148/2019,2000,g 11.5,4.0
# From MPC114605
P/2018 Y2 (Africano),e,11.6827,297.2664,162.3653,7.462862,0.0483444,0.47863410,35.6404,01/08.0/2021,2000,g 11.5,4.0
# From MPC114605
P/2019 A1 (PANSTARRS),e,13.7442,312.3031,150.7949,5.123347,0.0849911,0.56834592,69.7176,01/08.0/2021,2000,g 16.0,4.0
# From MPC114605
P/2019 A2 (ATLAS),e,14.8605,139.4685,324.0745,5.723320,0.0719834,0.38134880,56.1036,01/08.0/2021,2000,g 10.5,4.0
# From MPC114605
P/2019 A3 (PANSTARRS),e,15.3668,31.3031,325.4895,3.146940,0.1765515,0.26551179,157.0967,01/08.0/2021,2000,g 16.0,4.0
# From MPC114605
P/2019 A4 (PANSTARRS),e,13.3208,119.2993,341.7919,2.614518,0.2331399,0.08862652,178.4801,01/08.0/2021,2000,g 15.0,4.0
# From MPC118842
C/2019 A5 (PANSTARRS),e,67.5573,146.6259,355.9785,21.59032,0.0098246,0.70713807,5.6916,01/08.0/2021,2000,g  9.5,4.0
# From MPC114605
P/2019 A6 (Lemmon-PANSTARRS),e,33.2303,280.2688,156.2160,5.363260,0.0793525,0.63895751,68.4710,01/08.0/2021,2000,g 16.0,4.0
# From MPC114605
P/2019 A7 (PANSTARRS),e,17.7746,280.5228,119.2674,3.185721,0.1733375,0.16110560,190.1290,01/08.0/2021,2000,g 13.5,4.0
# From MPC115884
P/2019 A8 (PANSTARRS),e,3.1051,127.5664,22.4072,3.354476,0.1604232,0.45593395,134.7516,01/08.0/2021,2000,g 16.0,4.0
# From MPC118842
C/2019 A9 (PANSTARRS),e,84.1959,278.3853,237.9610,39.81090,0.0039237,0.96406358,2.0853,01/08.0/2021,2000,g 15.0,4.0
# From MPC114606
C/2019 B1 (Africano),e,123.3637,290.4354,174.8465,146.3742,0.0005566,0.98909184,0.0000,03/19.7695/2019,2000,g 16.0,4.0
# From MPC115885
P/2019 B2 (Groeller),e,16.8378,176.2924,359.2480,3.863550,0.1297849,0.37324917,75.1230,01/08.0/2021,2000,g 14.5,4.0
# From MPC115885
C/2019 B3 (PANSTARRS),h,01/19.9672/2021,66.5387,358.4296,263.9023,1.002488,6.823631,2000,5.5,4.0
# From MPEC 2020-AA5
C/2019 C1,e,36.0243,212.3889,319.1909,757.0177,0.0000473,0.99130651,0.0000,05/05.6337/2020,2000,g 10.0,4.0
# From MPC118842
C/2019 D1 (Flewelling),e,34.0819,231.7170,70.5213,141.3438,0.0005865,0.98883053,0.0000,05/11.8780/2019,2000,g 13.0,4.0
# From MPC119997
C/2019 E3 (ATLAS),h,11/12.5189/2023,84.2916,347.2410,280.6101,1.004004,10.314978,2000,2.5,4.0
# From MPC119997
C/2019 F1 (ATLAS-Africano),h,06/22.7826/2021,54.1755,38.7261,251.1186,1.003658,3.595663,2000,5.5,4.0
# From MPC119997
C/2019 F2 (ATLAS),e,19.1987,175.7055,11.2717,16.72483,0.0144099,0.86624113,7.0149,01/08.0/2021,2000,g 12.0,4.0
# From MPEC 2020-AA5
A/2019 G2,e,159.2079,208.1510,82.6363,671.3146,0.0000567,0.99658743,0.0000,12/10.0000/2019,2000,g 16.5,2.0
# From MPC118094
A/2019 G4,h,09/16.0207/2018,138.3865,130.4642,287.8840,1.001491,5.858417,2000,13.0,2.0
# From MPC114607
P/2019 GG21 (PANSTARRS),e,6.0838,340.5790,208.4992,7.472985,0.0482462,0.47299282,29.3418,01/08.0/2021,2000,g 12.0,4.0
# From MPC115885
C/2019 H1 (NEOWISE),e,104.5716,269.1948,19.3201,234.6495,0.0002742,0.99213366,0.0000,04/27.7970/2019,2000,g 15.5,4.0
# From MPC118842
C/2019 J1 (Lemmon),e,24.5505,98.0905,167.7857,69.72850,0.0016927,0.96444089,1.0831,01/08.0/2021,2000,g 12.0,4.0
# From MPC115885
C/2019 J2 (Palomar),e,105.1505,25.4790,98.7147,674.6658,0.0000562,0.99743983,0.0000,07/19.7039/2019,2000,g 13.0,4.0
# From MPC117071
C/2019 J3 (ATLAS),h,08/01.9501/2019,131.4120,270.5248,16.5812,1.000229,2.374236,2000,13.5,4.0
# From MPC117071
C/2019 JU6 (ATLAS),e,148.3032,21.7425,94.9025,337.0794,0.0001593,0.99393063,0.0000,05/31.8914/2019,2000,g 14.5,4.0
# From MPC119997
C/2019 K1 (ATLAS),h,02/12.9846/2020,87.1429,73.3774,265.7126,1.000023,2.012671,2000,10.0,4.0
# From MPC119997
C/2019 K4 (Ye),e,105.3022,180.1629,139.7737,1550,0.0000162,0.99854173,0.0000,06/16.3129/2019,2000,g 12.5,4.0
# From MPC119997
C/2019 K5 (Young),e,15.3151,177.1629,174.9672,157.5235,0.0004985,0.98707847,0.0000,06/22.8604/2019,2000,g 13.0,4.0
# From MPC117071
A/2019 K6,e,132.3776,42.9432,187.6292,1674,0.0000144,0.99765365,0.0000,05/20.2419/2020,2000,g 13.6,2.0
# From MPC118095
C/2019 K7 (Smith),e,103.5399,307.9297,27.3094,48757,0.0000001,0.99990822,0.0000,06/16.9827/2020,2000,g  6.2,4.0
# From MPC119997
C/2019 K8 (ATLAS),e,93.2212,291.0450,85.3723,2270,0.0000091,0.99859272,0.0000,07/21.3785/2019,2000,g 11.5,4.0
# From MPC118095
C/2019 L1 (PANSTARRS),e,9.9927,254.4120,49.9544,9.835640,0.0319522,0.70604513,16.4757,01/08.0/2021,2000,g 13.5,4.0
# From MPC115886
C/2019 L2 (NEOWISE),e,152.1823,12.5812,18.7451,24.85094,0.0079559,0.93479943,5.1491,01/08.0/2021,2000,g 16.0,4.0
# From MPC119997
C/2019 L3 (ATLAS),h,01/09.6923/2022,48.3660,290.7856,171.6340,1.000983,3.554005,2000,4.5,4.0
# From MPC118095
C/2019 LB7 (Kleyna),e,164.2908,3.8861,336.4871,34.84909,0.0047909,0.92872728,3.1285,01/08.0/2021,2000,g 17.0,4.0
# From MPC118843
P/2019 M2 (ATLAS),e,12.2821,307.5962,332.5656,3.026635,0.1871819,0.64834578,105.8236,01/08.0/2021,2000,g 21.2,4.0
# From MPC118095
C/2019 M3 (ATLAS),h,01/02.7161/2019,99.4642,154.9006,87.9301,1.001293,2.418887,2000,12.2,4.0
# From MPC119997
C/2019 N1 (ATLAS),e,82.4276,13.5729,193.4472,31633,0.0000002,0.99994612,0.0000,12/01.7907/2020,2000,g  7.5,4.0
# From MPEC 2020-AA5
A/2019 O2,e,93.2864,48.3170,129.6826,57.36593,0.0022684,0.83124265,358.1398,01/08.0/2021,2000,g  9.5,2.0
# From MPC118843
A/2019 O3,h,03/08.0852/2021,89.8125,300.3792,60.0588,1.002182,8.818452,2000,10.0,2.0
# From MPC117072
A/2019 O4,e,115.0862,354.9178,61.8297,32.85600,0.0052334,0.88906577,1.7425,01/08.0/2021,2000,g 15.5,2.0
# From MPEC 2020-AA5
A/2019 Q1,h,07/20.1165/2020,155.7225,42.3561,55.9887,1.000919,4.996961,2000,12.5,2.0
# From MPC117072
A/2019 Q2,e,159.0201,188.0412,176.2956,57.28281,0.0022734,0.97805982,0.0000,07/22.2943/2019,2000,g 18.0,2.0
# From MPC117072
C/2019 Q3 (PANSTARRS),h,08/21.3455/2018,65.5271,151.3238,152.6838,1.004127,7.253473,2000,8.5,4.0
# From MPC117072
P/2019 S2 (PANSTARRS),e,10.4729,93.1298,216.8607,4.736214,0.0956218,0.20678435,65.6379,01/08.0/2021,2000,g 13.5,4.0
# From MPC118096
P/2019 S3 (PANSTARRS),e,8.6936,150.1605,212.9806,3.414729,0.1561959,0.47092471,78.2221,01/08.0/2021,2000,g 18.3,4.0
# From MPEC 2020-AA5
A/2019 S4,e,92.0242,63.1638,71.3646,233.8426,0.0002756,0.98528146,0.0000,04/07.9709/2020,2000,g 14.5,2.0
# From MPC118843
A/2019 T1,e,120.8697,6.9538,91.0296,38.25439,0.0041656,0.88807588,359.9739,01/08.0/2021,2000,g 13.0,2.0
# From MPEC 2020-AA5
A/2019 T2,e,111.4844,155.6413,239.3855,2400,0.0000084,0.99889741,0.0000,04/22.2590/2021,2000,g 12.5,2.0
# From MPC119998
C/2019 T3 (ATLAS),e,121.8624,139.5205,112.2750,4240,0.0000036,0.99859756,0.0000,03/02.6585/2021,2000,g  6.8,4.0
# From MPC119998
